NORAD_CAT_ID,OBJECT_NAME,OBJECT_TYPE,EPOCH,MEAN_MOTION,ECCENTRICITY,INCLINATION,RA_OF_ASC_NODE,ARG_OF_PERICENTER,MEAN_ANOMALY,BSTAR,MEAN_MOTION_DOT,MEAN_MOTION_DDOT,TLE_LINE0,TLE_LINE1,TLE_LINE2,SEMIMAJOR_AXIS,PERIOD,APOGEE,PERIGEE,DECAYED
53596.0,STARLINK-4668,PAYLOAD,2024-06-25 05:05:47,15.17065119,0.000393,53.2146,153.5347,75.0123,285.1308,0.00057058,0.00011137,0.0,0 STARLINK-4668,1 53596U 22104J   24177.21235098  .00011137  00000-0  57058-3 0  9999,2 53596  53.2146 153.5347 0003930  75.0123 285.1308 15.17065119101029,6892.853,94.92,517.427,512.009,0.0
53596.0,STARLINK-4668,PAYLOAD,2024-06-25 09:50:23,15.17070388,0.0003934,53.2148,152.6361,75.6009,284.5423,0.0005837,0.00011403,0.0,0 STARLINK-4668,1 53596U 22104J   24177.40999206  .00011403  00000-0  58370-3 0  9992,2 53596  53.2148 152.6361 0003934  75.6009 284.5423 15.17070388101744,6892.837,94.92,517.414,511.991,0.0
53596.0,STARLINK-4668,PAYLOAD,2024-06-26 04:48:47,15.17097349,0.0003958,53.2151,149.0422,75.3439,284.7995,0.00076109,0.00014983,0.0,0 STARLINK-4668,1 53596U 22104J   24178.20054822  .00014983  00000-0  76109-3 0  9993,2 53596  53.2151 149.0422 0003958  75.3439 284.7995 15.17097349101175,6892.756,94.918,517.349,511.892,0.0
53596.0,STARLINK-4668,PAYLOAD,2024-06-27 04:31:45,15.17134722,0.0003943,53.2154,144.5493,77.6671,282.4766,0.00088745,0.00017548,0.0,0 STARLINK-4668,1 53596U 22104J   24179.18872239  .00017548  00000-0  88745-3 0  9990,2 53596  53.2154 144.5493 0003943  77.6671 282.4766 15.17134722101328,6892.642,94.916,517.225,511.79,0.0
53596.0,STARLINK-4668,PAYLOAD,2024-06-28 04:14:41,15.17178736,0.0003879,53.2151,140.0562,80.0257,280.1176,0.0011361,0.00022597,0.0,0 STARLINK-4668,1 53596U 22104J   24180.17687139  .00022597  00000-0  11361-2 0  9993,2 53596  53.2151 140.0562 0003879  80.0257 280.1176 15.17178736101478,6892.509,94.913,517.048,511.7,0.0
53596.0,STARLINK-4668,PAYLOAD,2024-06-29 03:57:34,15.17240969,0.0003858,53.2151,135.5635,83.1785,276.965,0.0014788,0.0002959,0.0,0 STARLINK-4668,1 53596U 22104J   24181.16498492  .00029590  00000-0  14788-2 0  9991,2 53596  53.2151 135.5635 0003858  83.1785 276.9650 15.17240969101620,6892.321,94.909,516.845,511.526,0.0
53596.0,STARLINK-4668,PAYLOAD,2024-06-29 13:26:42,15.1726935,0.0003819,53.2151,133.7657,84.9812,275.162,0.0014657,0.00029348,0.0,0 STARLINK-4668,1 53596U 22104J   24181.56021747  .00029348  00000-0  14657-2 0  9996,2 53596  53.2151 133.7657 0003819  84.9812 275.1620 15.17269350102377,6892.235,94.907,516.732,511.467,0.0
53596.0,STARLINK-4668,PAYLOAD,2024-06-29 21:20:59,15.17290872,0.0003748,53.2147,132.2667,85.4098,274.7326,0.0014564,0.00029177,0.0,0 STARLINK-4668,1 53596U 22104J   24181.88957286  .00029177  00000-0  14564-2 0  9994,2 53596  53.2147 132.2667 0003748  85.4098 274.7326 15.17290872102427,6892.169,94.906,516.618,511.451,0.0
53596.0,STARLINK-4668,PAYLOAD,2024-06-30 03:40:23,15.17311232,0.0003764,53.2148,131.069,86.9949,273.1477,0.0016434,0.00033001,0.0,0 STARLINK-4668,1 53596U 22104J   24182.15305341  .00033001  00000-0  16434-2 0  9993,2 53596  53.2148 131.0690 0003764  86.9949 273.1477 15.17311232101771,6892.108,94.905,516.567,511.379,0.0
53596.0,STARLINK-4668,PAYLOAD,2024-06-30 13:09:30,15.17339147,0.0003751,53.215,129.2712,87.947,272.1955,0.0015838,0.00031813,0.0,0 STARLINK-4668,1 53596U 22104J   24182.54826794  .00031813  00000-0  15838-2 0  9992,2 53596  53.2150 129.2712 0003751  87.9470 272.1955 15.17339147102523,6892.023,94.903,516.473,511.303,0.0
53596.0,STARLINK-4668,PAYLOAD,2024-07-01 12:52:14,15.17406958,0.0003696,53.2152,124.777,91.858,268.2839,0.0015834,0.00031867,0.0,0 STARLINK-4668,1 53596U 22104J   24183.53627404  .00031867  00000-0  15834-2 0  9994,2 53596  53.2152 124.7770 0003696  91.8580 268.2839 15.17406958101984,6891.818,94.899,516.23,511.136,0.0
53596.0,STARLINK-4668,PAYLOAD,2024-07-02 12:34:53,15.17479006,0.0003662,53.2155,120.2828,95.9362,264.2052,0.0016075,0.00032427,0.0,0 STARLINK-4668,1 53596U 22104J   24184.52423440  .00032427  00000-0  16075-2 0  9999,2 53596  53.2155 120.2828 0003662  95.9362 264.2052 15.17479006102829,6891.6,94.894,515.988,510.941,0.0
53596.0,STARLINK-4668,PAYLOAD,2024-07-02 20:29:06,15.17499853,0.0003645,53.2155,118.7847,97.0653,263.0758,0.0014769,0.00029774,0.0,0 STARLINK-4668,1 53596U 22104J   24184.85354471  .00029774  00000-0  14769-2 0  9991,2 53596  53.2155 118.7847 0003645  97.0653 263.0758 15.17499853102180,6891.537,94.893,515.914,510.89,0.0
53596.0,STARLINK-4668,PAYLOAD,2024-07-03 12:17:30,15.17538049,0.0003606,53.2154,115.7884,99.2665,260.8739,0.0014261,0.00028766,0.0,0 STARLINK-4668,1 53596U 22104J   24185.51215284  .00028766  00000-0  14261-2 0  9990,2 53596  53.2154 115.7884 0003606  99.2665 260.8739 15.17538049102973,6891.421,94.891,515.771,510.801,0.0
53596.0,STARLINK-4668,PAYLOAD,2024-07-04 04:05:52,15.175736,0.0003547,53.2152,112.7926,101.4694,258.67,0.0012993,0.00026198,0.0,0 STARLINK-4668,1 53596U 22104J   24186.17074461  .00026198  00000-0  12993-2 0  9990,2 53596  53.2152 112.7926 0003547 101.4694 258.6700 15.17573600102387,6891.313,94.888,515.623,510.734,0.0
53596.0,STARLINK-4668,PAYLOAD,2024-07-04 12:00:02,15.17592329,0.0003528,53.215,111.294,103.2808,256.8581,0.0012745,0.00025704,0.0,0 STARLINK-4668,1 53596U 22104J   24186.50003435  .00025704  00000-0  12745-2 0  9997,2 53596  53.2150 111.2940 0003528 103.2808 256.8581 15.17592329103120,6891.257,94.887,515.553,510.69,0.0
53596.0,STARLINK-4668,PAYLOAD,2024-07-04 23:03:53,15.17620175,0.0003508,53.215,109.1967,105.0695,255.0689,0.0013921,0.00028137,0.0,0 STARLINK-4668,1 53596U 22104J   24186.96103323  .00028137  00000-0  13921-2 0  9994,2 53596  53.2150 109.1967 0003508 105.0695 255.0689 15.17620175103195,6891.172,94.885,515.455,510.62,0.0
53596.0,STARLINK-4668,PAYLOAD,2024-07-05 11:42:32,15.17653149,0.0003491,53.2148,106.7993,107.4757,252.6621,0.0014167,0.00028669,0.0,0 STARLINK-4668,1 53596U 22104J   24187.48787823  .00028669  00000-0  14167-2 0  9998,2 53596  53.2148 106.7993 0003491 107.4757 252.6621 15.17653149102588,6891.073,94.883,515.343,510.532,0.0
53596.0,STARLINK-4668,PAYLOAD,2024-07-05 22:46:21,15.17680205,0.000348,53.2147,104.7012,109.2671,250.8701,0.0013984,0.00028316,0.0,0 STARLINK-4668,1 53596U 22104J   24187.94885875  .00028316  00000-0  13984-2 0  9990,2 53596  53.2147 104.7012 0003480 109.2671 250.8701 15.17680205103347,6890.991,94.882,515.254,510.458,0.0
53596.0,STARLINK-4668,PAYLOAD,2024-07-06 11:24:59,15.1770734,0.0003447,53.2144,102.3041,111.3073,248.8292,0.0011098,0.00022406,0.0,0 STARLINK-4668,1 53596U 22104J   24188.47568350  .00022406  00000-0  11098-2 0  9993,2 53596  53.2144 102.3041 0003447 111.3073 248.8292 15.17707340103424,6890.909,94.88,515.149,510.398,0.0
53596.0,STARLINK-4668,PAYLOAD,2024-07-06 22:28:46,15.17731978,0.0003449,53.2144,100.2062,112.4367,247.6995,0.0011355,0.0002295,0.0,0 STARLINK-4668,1 53596U 22104J   24188.93664760  .00022950  00000-0  11355-2 0  9996,2 53596  53.2144 100.2062 0003449 112.4367 247.6995 15.17731978103492,6890.834,94.878,515.076,510.322,0.0
53596.0,STARLINK-4668,PAYLOAD,2024-07-07 03:13:14,15.17742513,0.0003446,53.2145,99.3073,112.5832,247.5528,0.001143,0.00023111,0.0,0 STARLINK-4668,1 53596U 22104J   24189.13420131  .00023111  00000-0  11430-2 0  9995,2 53596  53.2145  99.3073 0003446 112.5832 247.5528 15.17742513102833,6890.802,94.878,515.042,510.292,0.0
53596.0,STARLINK-4668,PAYLOAD,2024-07-08 10:49:42,15.17815337,0.000337,53.2139,93.3123,117.2215,242.9124,0.0012362,0.00025081,0.0,0 STARLINK-4668,1 53596U 22104J   24190.45118990  .00025081  00000-0  12362-2 0  9992,2 53596  53.2139  93.3123 0003370 117.2215 242.9124 15.17815337103038,6890.582,94.873,514.769,510.125,0.0
53596.0,STARLINK-4668,PAYLOAD,2024-07-08 21:53:27,15.17843538,0.0003339,53.2138,91.2141,118.4304,241.7029,0.0013863,0.000282,0.0,0 STARLINK-4668,1 53596U 22104J   24190.91212069  .00028200  00000-0  13863-2 0  9998,2 53596  53.2138  91.2141 0003339 118.4304 241.7029 15.17843538103799,6890.496,94.871,514.662,510.061,0.0
53596.0,STARLINK-4668,PAYLOAD,2024-07-09 10:32:00,15.17871271,0.0003284,53.2136,88.8164,119.8739,240.2584,0.0012028,0.00024432,0.0,0 STARLINK-4668,1 53596U 22104J   24191.43888894  .00024432  00000-0  12028-2 0  9996,2 53596  53.2136  88.8164 0003284 119.8739 240.2584 15.17871271103874,6890.412,94.87,514.54,510.015,0.0
53596.0,STARLINK-4668,PAYLOAD,2024-07-09 16:51:16,15.17885882,0.0003278,53.2134,87.6174,120.6366,239.4953,0.0012283,0.00024969,0.0,0 STARLINK-4668,1 53596U 22104J   24191.70226961  .00024969  00000-0  12283-2 0  9995,2 53596  53.2134  87.6174 0003278 120.6366 239.4953 15.17885882103221,6890.368,94.869,514.492,509.974,0.0
53596.0,STARLINK-4668,PAYLOAD,2024-07-09 21:35:43,15.17896034,0.0003247,53.2134,86.7184,120.7494,239.3823,0.0012223,0.00024853,0.0,0 STARLINK-4668,1 53596U 22104J   24191.89980334  .00024853  00000-0  12223-2 0  9992,2 53596  53.2134  86.7184 0003247 120.7494 239.3823 15.17896034103946,6890.337,94.868,514.44,509.965,0.0
53596.0,STARLINK-4668,PAYLOAD,2024-07-10 10:14:14,15.17924481,0.0003182,53.2134,84.3201,122.2861,237.8444,0.0012108,0.00024635,0.0,0 STARLINK-4668,1 53596U 22104J   24192.42655313  .00024635  00000-0  12108-2 0  9998,2 53596  53.2134  84.3201 0003182 122.2861 237.8444 15.17924481104023,6890.251,94.866,514.309,509.924,0.0
53596.0,STARLINK-4668,PAYLOAD,2024-07-10 22:52:44,15.17953809,0.000314,53.2133,81.9221,123.0758,237.054,0.0013186,0.00026888,0.0,0 STARLINK-4668,1 53596U 22104J   24192.95329336  .00026888  00000-0  13186-2 0  9998,2 53596  53.2133  81.9221 0003140 123.0758 237.0540 15.17953809104109,6890.163,94.865,514.191,509.864,0.0
53596.0,STARLINK-4668,PAYLOAD,2024-07-11 16:15:39,15.17997331,0.0003086,53.2131,78.6236,126.2464,233.8817,0.0013531,0.00027638,0.0,0 STARLINK-4668,1 53596U 22104J   24193.67754299  .00027638  00000-0  13531-2 0  9996,2 53596  53.2131  78.6236 0003086 126.2464 233.8817 15.17997331104215,6890.031,94.862,514.022,509.77,0.0
